[{"OBJECT_NAME":"STARLINK-2113","OBJECT_ID":"2021-005AV","EPOCH":"2026-03-09T22:00:01.999584","MEAN_MOTION":15.5817622,"ECCENTRICITY":0.00052189,"INCLINATION":53.0529,"RA_OF_ASC_NODE":15.2698,"ARG_OF_PERICENTER":117.6872,"MEAN_ANOMALY":84.8234,"EPHEMERIS_TYPE":0,"CLASSIFICATION_TYPE":"U","NORAD_CAT_ID":47392,"ELEMENT_SET_NO":999,"REV_AT_EPOCH":587,"BSTAR":0.0015913714,"MEAN_MOTION_DOT":0.00123694,"MEAN_MOTION_DDOT":0},{"OBJECT_NAME":"FLOCK 4Q-21","OBJECT_ID":"2023-174CB","EPOCH":"2026-03-09T16:54:09.057600","MEAN_MOTION":15.57402591,"ECCENTRICITY":0.00059277,"INCLINATION":97.3918,"RA_OF_ASC_NODE":160.0322,"ARG_OF_PERICENTER":156.3296,"MEAN_ANOMALY":203.8233,"EPHEMERIS_TYPE":0,"CLASSIFICATION_TYPE":"U","NORAD_CAT_ID":58329,"ELEMENT_SET_NO":999,"REV_AT_EPOCH":13049,"BSTAR":0.00065948974,"MEAN_MOTION_DOT":0.00048452,"MEAN_MOTION_DDOT":0}]
